CCSDS_OMM_VERS = 2.0
CREATION_DATE  = 
ORIGINATOR     = 

OBJECT_NAME    = CZ-2C R/B
OBJECT_ID      = 2022-058K
CENTER_NAME    = EARTH
REF_FRAME      = TEME
TIME_SYSTEM    = UTC
MEAN_ELEMENT_THEORY = SGP/SGP4

EPOCH          = 2025-11-26T11:23:53.197728
MEAN_MOTION    = 15.47343705
ECCENTRICITY   = .00473217
INCLINATION    = 50.1892
RA_OF_ASC_NODE = 126.4236
ARG_OF_PERICENTER = 131.2741
MEAN_ANOMALY   = 229.2317

EPHEMERIS_TYPE = 0
CLASSIFICATION_TYPE = U
NORAD_CAT_ID   = 52794
ELEMENT_SET_NO = 999
REV_AT_EPOCH   = 19411
BSTAR          = .49202285E-3
MEAN_MOTION_DOT = .26386E-3
MEAN_MOTION_DDOT = 0

CCSDS_OMM_VERS = 2.0
CREATION_DATE  = 
ORIGINATOR     = 

OBJECT_NAME    = CZ-2C R/B
OBJECT_ID      = 2022-132E
CENTER_NAME    = EARTH
REF_FRAME      = TEME
TIME_SYSTEM    = UTC
MEAN_ELEMENT_THEORY = SGP/SGP4

EPOCH          = 2025-11-26T12:13:05.837376
MEAN_MOTION    = 15.53438788
ECCENTRICITY   = .0023988
INCLINATION    = 97.2950
RA_OF_ASC_NODE = 326.4156
ARG_OF_PERICENTER = 110.0052
MEAN_ANOMALY   = 250.3788

EPHEMERIS_TYPE = 0
CLASSIFICATION_TYPE = U
NORAD_CAT_ID   = 54039
ELEMENT_SET_NO = 999
REV_AT_EPOCH   = 17431
BSTAR          = .41874598E-3
MEAN_MOTION_DOT = .26805E-3
MEAN_MOTION_DDOT = 0

CCSDS_OMM_VERS = 2.0
CREATION_DATE  = 
ORIGINATOR     = 

OBJECT_NAME    = GSLV R/B
OBJECT_ID      = 2022-138AN
CENTER_NAME    = EARTH
REF_FRAME      = TEME
TIME_SYSTEM    = UTC
MEAN_ELEMENT_THEORY = SGP/SGP4

EPOCH          = 2025-11-26T16:03:27.460512
MEAN_MOTION    = 14.96009022
ECCENTRICITY   = .0022275
INCLINATION    = 87.3842
RA_OF_ASC_NODE = 200.8543
ARG_OF_PERICENTER = 159.4316
MEAN_ANOMALY   = 200.7818

EPHEMERIS_TYPE = 0
CLASSIFICATION_TYPE = U
NORAD_CAT_ID   = 54149
ELEMENT_SET_NO = 999
REV_AT_EPOCH   = 16852
BSTAR          = .31213951E-3
MEAN_MOTION_DOT = .3545E-4
MEAN_MOTION_DDOT = 0

CCSDS_OMM_VERS = 2.0
CREATION_DATE  = 
ORIGINATOR     = 

OBJECT_NAME    = XRISM
OBJECT_ID      = 2023-137A
CENTER_NAME    = EARTH
REF_FRAME      = TEME
TIME_SYSTEM    = UTC
MEAN_ELEMENT_THEORY = SGP/SGP4

EPOCH          = 2025-11-26T23:19:38.060256
MEAN_MOTION    = 15.10127967
ECCENTRICITY   = .00076013
INCLINATION    = 31.0011
RA_OF_ASC_NODE = 227.3337
ARG_OF_PERICENTER = 85.1395
MEAN_ANOMALY   = 275.0110

EPHEMERIS_TYPE = 0
CLASSIFICATION_TYPE = U
NORAD_CAT_ID   = 57800
ELEMENT_SET_NO = 999
REV_AT_EPOCH   = 12224
BSTAR          = .3880165E-3
MEAN_MOTION_DOT = .6582E-4
MEAN_MOTION_DDOT = 0

CCSDS_OMM_VERS = 2.0
CREATION_DATE  = 
ORIGINATOR     = 

OBJECT_NAME    = ACS3
OBJECT_ID      = 2024-077B
CENTER_NAME    = EARTH
REF_FRAME      = TEME
TIME_SYSTEM    = UTC
MEAN_ELEMENT_THEORY = SGP/SGP4

EPOCH          = 2025-11-26T18:53:35.191104
MEAN_MOTION    = 13.84342411
ECCENTRICITY   = .00733468
INCLINATION    = 97.2863
RA_OF_ASC_NODE = 289.9472
ARG_OF_PERICENTER = 9.2734
MEAN_ANOMALY   = 350.9762

EPHEMERIS_TYPE = 0
CLASSIFICATION_TYPE = U
NORAD_CAT_ID   = 59588
ELEMENT_SET_NO = 999
REV_AT_EPOCH   = 7993
BSTAR          = -.11246907E-1
MEAN_MOTION_DOT = -.12845E-3
MEAN_MOTION_DDOT = 0

